#dP2024  5 29  0  0  0.00000000      96 __u+U IGS20 EXT  IAC
## 2316 259200.00000000   900.00000000 60459 0.0000000000000
+   54   G02G03G04G05G06G07G08G09G10G11G12G13G14G15G16G17G18
+        G19G20G21G22G23G24G25G26G27G28G29G30G31G32R01R02R03
+        R04R05R07R08R09R11R12R13R14R15R16R17R18R19R20R21R22
+        R24R25R26  0  0  0  0  0  0  0  0  0  0  0  0  0  0
+          0  0  0  0  0  0  0  0  0  0  0  0  0  0  0  0  0
++         8  6  8  9  8  9  9  7  9  9  9  9  7  7  9  6  7
++         8 10  7  9  8  8  8  9  8  7  7  8  8  8  8  8  7
++         8  8  9  8  7  7  9  7  8  8  8  8  7  8  6  9  8
++         8  9  6  0  0  0  0  0  0  0  0  0  0  0  0  0  0
++         0  0  0  0  0  0  0  0  0  0  0  0  0  0  0  0  0
%c M  cc GPS ccc cccc cccc cccc cccc ccccc ccccc ccccc ccccc
%c cc cc ccc ccc cccc cccc cccc cccc ccccc ccccc ccccc ccccc
%f  0.0000000  0.000000000  0.00000000000  0.000000000000000
%f  0.0000000  0.000000000  0.00000000000  0.000000000000000
%i    0    0    0    0      0      0      0      0         0
%i    0    0    0    0      0      0      0      0         0
/* IAC                                ULTRA-RAPID PREDICTION
/* S/V CLOCKS ARE ALIGNED TO GNSS TIME                      
/* G:C1WC2W R:C1PC2P E:C1XC5X C:C2IC6I J:C1CC2S             
/* PCV:IGS20_2290 OL/AL:FES2004  NONE     YN ORB:CoN CLK:CoN
*  2024 05 29  5  0  0.00000000
PG02 -22753.437677 -14004.113609    825.638935   -427.717056
PG03 -12720.853674  -9842.470909  21006.309058    387.164468
PG04 -21150.399730  -3766.991636  15724.353376    371.445984
PG05   6390.218173  22772.269509 -12173.988211   -174.394224
PG06  -5847.540943  13794.437514  21978.931120    248.308069
PG07 -20828.653342  -1477.286041 -16161.933465   -110.904013
PG08 -12887.687996 -10476.935994 -20917.161641    202.834844
PG09 -25082.717925   7034.256927   5241.633096    214.026666
PG10  10510.678582 -21270.830684 -11390.645310    -31.747683
PG11   7010.640044  20245.849739  15754.863269   -673.356421
PG12  11647.058333  12575.830705  20020.415304   -509.450380
PG13   3338.392164  14710.964617 -22064.718784    654.033216
PG14 -13206.588547  18023.477273 -14162.990456    412.267899
PG15  14050.600827   9561.462794 -20947.768757    164.171912
PG16  -1737.070119 -24410.226260 -10077.517054   -279.120500
PG17 -21470.063672  13536.695405   8518.641285    701.628332
PG18  19986.621844    734.596525 -17564.162553   -617.523189
PG19 -14517.458171  15437.765234  15582.899183    488.712589
PG20   2122.675121  26519.836448  -1373.749438    374.877831
PG21 -20771.180672 -16758.535355  -4314.217103    118.804603
PG22 -10043.602967  23766.361768  -6494.524450    -20.077246
PG23  14366.615804 -10480.647712 -19638.612083    237.068991
PG24  21656.536006  15643.712378  -2354.116766   -473.667243
PG25  15165.518553   1838.092080  21392.129092    496.515616
PG26   4461.844522 -25621.236228   4163.259678    145.693733
PG27   -634.415127 -15950.576538 -21453.149660    -26.096288
PG28   8110.461444 -12884.582139  21752.690255   -264.567571
PG29  25317.682409  -2702.614224   7714.967563   -596.554031
PG30 -13543.228641   9007.860804 -20884.045368   -382.992484
PG31  -2226.911116 -18609.239933  18450.681150   -227.655477
PG32  18925.971500 -15645.990569  10075.928604   -617.575172
PR01  18422.902115  -8175.728536 -15641.578548     86.781768
PR02  18347.185222 -17666.818797    559.000416    -23.097665
PR03   7430.868219 -17933.472427  16566.670774    101.035471
PR04  -6866.769501  -8248.639906  23172.269971    238.598317
PR05 -17795.091915   5680.346056  17394.739699    132.217866
PR07  -6934.682606  17698.255674 -16991.225424     83.402233
PR08   7165.365277   8085.221392 -23044.375067     -4.302030
PR09  -6219.029393  14468.532360 -20016.974740    189.195321
PR11  10115.881386  21548.195004   9151.978329     23.179041
PR12  12062.688942   4544.234865  22040.365655     40.683507
PR13   7376.974462 -11998.227253  21256.474386    -47.828099
PR14  -3013.063335 -24421.965716   6780.638620     26.521662
PR15 -10487.283290 -20714.792046 -10552.851054     79.347965
PR16 -11968.776172  -4820.991562 -21998.217326     26.003828
PR17  -3452.371308 -11708.950973 -22389.653041     90.989928
PR18 -18761.734970 -11781.403844 -12680.098798    144.373264
PR19 -24322.558512  -7465.125730   1801.493219   -278.328757
PR20 -15634.476944   3959.121381  19778.328999   -113.566041
PR21   3218.164906  11633.114630  22468.578865   -104.723579
PR22  19120.677444  12247.465723  11631.491132    108.307004
PR24  15076.180193  -5321.799143 -19871.261971    -57.692188
PR25   3243.667538  12198.048052  22170.465357     -4.795257
PR26   6220.874977   8982.950379 -23024.729728     -7.420804
*  2024 05 29  5 15  0.00000000
PG02 -22539.696429 -14127.872644  -2024.871621   -427.710874
PG03 -12409.818625 -12189.366109  19953.618819    387.181477
PG04 -19452.337273  -4623.981225  17569.276974    371.453436
PG05   6129.414697  23987.342852  -9674.377028   -174.395360
PG06  -7874.109917  12313.572692  22234.656267    248.289818
PG07 -22183.447729  -2686.630672 -14185.499547   -110.888405
PG08 -10751.562188 -11573.038182 -21503.037232    202.852280
PG09 -24501.515981   6480.496016   7954.557747    214.039550
PG10  10539.573831 -19782.130356 -13783.441231    -31.754228
PG11   5427.796568  19181.134371  17601.210518   -673.364286
PG12  11152.335585  14796.761750  18766.624888   -509.453292
PG13    963.660340  15371.468296 -21822.071369    654.035725
PG14 -13210.262860  16256.962405 -16170.433611    412.276212
PG15  12123.151499  10875.387396 -21499.772177    164.175693
PG16  -1304.844059 -25317.873053  -7436.382834   -279.111324
PG17 -22257.427398  13620.215354   5812.461125    701.624437
PG18  21425.039498   1974.909075 -15690.632184   -617.528024
PG19 -16196.412967  15777.598035  13431.300676    488.717421
PG20   1860.519115  26541.439103   1459.876256    374.876600
PG21 -20095.629230 -16563.622469  -7016.179416    118.802540
PG22 -10085.170881  22802.009132  -9143.838436    -20.081865
PG23  14286.759583  -8162.619337 -20780.378746    237.077378
PG24  21183.757112  15706.214595  -5089.011946   -473.669975
PG25  14947.819549   4340.156999  21209.389386    496.516176
PG26   4805.576629 -24955.433331   6882.904489    145.688404
PG27   1541.892940 -16859.794005 -20649.508574    -26.097752
PG28  10170.278958 -11491.643572  21667.336144   -264.582643
PG29  24412.371241  -2163.582541  10329.643495   -596.552579
PG30 -15431.654699   7551.820885 -20168.004753   -382.987063
PG31   -348.510502 -17378.386498  19757.238194   -227.655335
PG32  19917.938779 -15839.103478   7449.183786   -617.574523
PR01  16950.335714  -6722.792129 -17841.660026     86.782655
PR02  18133.114593 -17687.213935  -2664.841297    -23.097782
PR03   8662.898442 -19371.318559  14163.850536    101.035891
PR04  -4882.718267 -10272.645477  22863.149135    238.599895
PR05 -16117.001572   4154.707316  19351.613551    132.218396
PR07  -8217.759020  19184.442907 -14655.218301     83.402971
PR08   5190.392384  10130.639178 -22766.999056     -4.302473
PR09  -6963.295479  12021.060853 -21352.588647    189.197125
PR11  10514.638367  22411.698288   6121.698275     23.178019
PR12  12844.008341   7069.093069  20903.897397     40.683884
PR13   8114.716196  -9414.009948  22264.799942    -47.828447
PR14  -2828.735358 -23415.096526   9760.871624     26.521753
PR15 -10913.078931 -21761.310809  -7612.214066     79.347605
PR16 -12771.235522  -7341.512709 -20822.571091     26.004069
PR17   -746.553897 -10969.495075 -23012.434800     90.992974
PR18 -17140.196461 -11166.827589 -15262.522272    144.374888
PR19 -24408.878426  -7261.237509  -1444.361745   -278.329963
PR20 -17895.895923   3400.736210  17877.015156   -113.566652
PR21    510.323635  10865.365336  23067.242418   -104.726424
PR22  17627.424411  11670.047910  14286.809058    108.303882
PR24  17364.531030  -4816.446183 -18051.126303    -57.693572
PR25    595.476178  11363.834627  22831.448259     -4.908192
PR26   4279.950280  11029.438123 -22571.903595     -7.420145
EOF
